     2.10           G: GLONASS NAV DATA                     RINEX VERSION / TYPE
teqc  2015Jun23                         20211227 01:25:45UTCPGM / RUN BY / DATE
Linux 2.4.21-27.ELsmp|Opteron|gcc -static|Linux x86_64|=+   COMMENT
  2021    12     3   -4.656612873077D-10                    CORR TO SYSTEM TIME
                                                            END OF HEADER
18 21 12  4  2 15  0.0 9.929854422808D-05 9.094947017729D-13 7.200000000000D+03
    1.867418457031D+03 1.908264160156D-01-4.656612873077D-09 0.000000000000D+00
    2.529498779297D+04-4.291706085205D-01 0.000000000000D+00-3.000000000000D+00
   -2.912728027344D+03-3.574808120728D+00-1.862645149231D-09 0.000000000000D+00
 4 21 12  4  2 15  0.0 1.172004267573D-04 1.818989403546D-12 7.200000000000D+03
    6.411080078125D+03-2.609326362610D+00 9.313225746155D-10 0.000000000000D+00
    1.321454736328D+04-1.159510612488D+00-2.793967723846D-09 6.000000000000D+00
    2.087896972656D+04 1.535115242004D+00-1.862645149231D-09 0.000000000000D+00
14 21 12  4  2 15  0.0 7.167086005211D-05 0.000000000000D+00 7.200000000000D+03
   -1.830735693359D+04-3.932790756226D-01-5.587935447693D-09 0.000000000000D+00
    1.720141894531D+04 4.874649047852D-01 3.725290298462D-09-7.000000000000D+00
   -4.450599609375D+03 3.491400718689D+00-3.725290298462D-09 0.000000000000D+00
15 21 12  4  2 15  0.0 9.982474148273D-05-0.000000000000D+00 7.200000000000D+03
   -5.730999023438D+03-1.997552871704D+00-5.587935447693D-09 0.000000000000D+00
    1.601812060547D+04 1.672579765320D+00 2.793967723846D-09 0.000000000000D+00
   -1.898515771484D+04 2.012388229370D+00-0.000000000000D+00 0.000000000000D+00
19 21 12  4  2 15  0.0-1.693721860647D-04-9.094947017729D-13 7.200000000000D+03
    7.709967773438D+03 3.864850997925D-01-9.313225746155D-10 0.000000000000D+00
    2.077395263672D+04 1.702492713928D+00-2.793967723846D-09 3.000000000000D+00
    1.263376708984D+04-3.037351608276D+00-1.862645149231D-09 0.000000000000D+00
13 21 12  4  2 15  0.0-6.436277180910D-05-0.000000000000D+00 7.260000000000D+03
   -2.012202685547D+04 1.526054382324D+00-9.313225746155D-10 0.000000000000D+00
    7.860940429688D+03-1.066205978394D+00 1.862645149231D-09-2.000000000000D+00
    1.354466162109D+04 2.883084297180D+00-3.725290298462D-09 0.000000000000D+00
17 21 12  4  2 45  0.0 4.804739728570D-04 2.728484105319D-12 9.000000000000D+03
   -6.597160644531D+03-6.708135604858D-01-4.656612873077D-09 0.000000000000D+00
    1.252102246094D+04-2.833737373352D+00 3.725290298462D-09 4.000000000000D+00
   -2.119573632812D+04-1.468096733093D+00-0.000000000000D+00 0.000000000000D+00
18 21 12  4  2 45  0.0 9.930133819580D-05 9.094947017729D-13 9.000000000000D+03
    1.981736816406D+03-1.014966964722D-01-5.587935447693D-09 0.000000000000D+00
    2.374372851562D+04-1.273057937622D+00 1.862645149231D-09-3.000000000000D+00
   -9.152067382812D+03-3.312834739685D+00-9.313225746155D-10 0.000000000000D+00
14 21 12  4  2 45  0.0 7.167086005211D-05 0.000000000000D+00 9.000000000000D+03
   -1.838361718750D+04 2.836093902588D-01-3.725290298462D-09 0.000000000000D+00
    1.758834033203D+04-8.939266204834D-02 3.725290298462D-09-7.000000000000D+00
    1.924745605469D+03 3.546335220337D+00-4.656612873077D-09 0.000000000000D+00
 4 21 12  4  2 45  0.0 1.172041520476D-04 1.818989403546D-12 9.000000000000D+03
    1.318972167969D+03-3.005492210388D+00 0.000000000000D+00 0.000000000000D+00
    1.140090771484D+04-8.280944824219D-01-1.862645149231D-09 6.000000000000D+00
    2.280136914062D+04 5.870447158813D-01-2.793967723846D-09 0.000000000000D+00
15 21 12  4  2 45  0.0 9.982381016016D-05-0.000000000000D+00 9.000000000000D+03
   -8.730666015625D+03-1.325226783752D+00-5.587935447693D-09 0.000000000000D+00
    1.893269140625D+04 1.519935607910D+00 4.656612873077D-09 0.000000000000D+00
   -1.467455712891D+04 2.745985984802D+00-1.862645149231D-09 0.000000000000D+00
19 21 12  4  2 45  0.0-1.693740487099D-04-9.094947017729D-13 9.000000000000D+03
    8.500985839844D+03 4.503002166748D-01-3.725290298462D-09 0.000000000000D+00
    2.308050830078D+04 8.445272445679D-01-9.313225746155D-10 3.000000000000D+00
    6.748644531250D+03-3.459218978882D+00-1.862645149231D-09 0.000000000000D+00
17 21 12  4  3 15  0.0 4.804795607924D-04 2.728484105319D-12 1.080000000000D+04
   -8.272442871094D+03-1.185173034668D+00-2.793967723846D-09 0.000000000000D+00
    7.292040039062D+03-2.924148559570D+00 4.656612873077D-09 4.000000000000D+00
   -2.298291796875D+04-5.048475265503D-01 0.000000000000D+00 0.000000000000D+00
18 21 12  4  3 15  0.0 9.930413216352D-05 9.094947017729D-13 1.080000000000D+04
    1.385406250000D+03-5.869464874268D-01-5.587935447693D-09 0.000000000000D+00
    2.081988769531D+04-1.938076972961D+00 3.725290298462D-09-3.000000000000D+00
   -1.468491552734D+04-2.794830322266D+00-9.313225746155D-10 0.000000000000D+00
14 21 12  4  3 15  0.0 7.167179137468D-05 0.000000000000D+00 1.080000000000D+04
   -1.740064990234D+04 7.711954116821D-01-1.862645149231D-09 0.000000000000D+00
    1.679020019531D+04-8.143072128296D-01 3.725290298462D-09-7.000000000000D+00
    8.151378906250D+03 3.327269554138D+00-4.656612873077D-09 0.000000000000D+00
15 21 12  4  3 15  0.0 9.982287883759D-05-0.000000000000D+00 1.080000000000D+04
   -1.049925390625D+04-6.484966278076D-01-4.656612873077D-09 0.000000000000D+00
    2.132686523438D+04 1.097127914429D+00 5.587935447693D-09 0.000000000000D+00
   -9.227635253906D+03 3.266764640808D+00-2.793967723846D-09 0.000000000000D+00
19 21 12  4  3 15  0.0-1.693768426776D-04-9.094947017729D-13 1.080000000000D+04
    9.175011230469D+03 2.556505203247D-01-4.656612873077D-09 0.000000000000D+00
    2.379365234375D+04-4.765224456787D-02 0.000000000000D+00 3.000000000000D+00
    3.414995117188D+02-3.613581657410D+00-1.862645149231D-09 0.000000000000D+00
16 21 12  4  3 15  0.0-2.613291144371D-05-0.000000000000D+00 1.125000000000D+04
    4.274364746094D+03-1.703542709351D+00-4.656612873077D-09 0.000000000000D+00
    1.238309619141D+04 2.460213661194D+00 2.793967723846D-09-1.000000000000D+00
   -2.188340332031D+04 1.073169708252D+00 9.313225746155D-10 0.000000000000D+00
19 21 12  4  3 45  0.0-1.693796366453D-04-9.094947017729D-13 1.260000000000D+04
    9.276525878906D+03-1.788320541382D-01-4.656612873077D-09 0.000000000000D+00
    2.296074121094D+04-8.540706634521D-01 2.793967723846D-09 3.000000000000D+00
   -6.092059082031D+03-3.488359451294D+00-1.862645149231D-09 0.000000000000D+00
16 21 12  4  3 45  0.0-2.613384276628D-05-9.094947017729D-13 1.260000000000D+04
    1.684989257812D+03-1.164022445679D+00-4.656612873077D-09 0.000000000000D+00
    1.675243359375D+04 2.346051216125D+00 4.656612873077D-09-1.000000000000D+00
   -1.912981542969D+04 1.966854095459D+00-0.000000000000D+00 0.000000000000D+00
14 21 12  4  3 45  0.0 7.167272269726D-05 0.000000000000D+00 1.260000000000D+04
   -1.575490869141D+04 1.014255523682D+00-0.000000000000D+00 0.000000000000D+00
    1.462844287109D+04-1.586146354675D+00 1.862645149231D-09-7.000000000000D+00
    1.374837109375D+04 2.851297378540D+00-3.725290298462D-09 0.000000000000D+00
15 21 12  4  3 45  0.0 9.982287883759D-05-0.000000000000D+00 1.260000000000D+04
   -1.112749560547D+04-7.476139068604D-02-2.793967723846D-09 0.000000000000D+00
    2.274277148438D+04 4.430294036865D-01 5.587935447693D-09 0.000000000000D+00
   -3.066420898438D+03 3.534512519836D+00-3.725290298462D-09 0.000000000000D+00
18 21 12  4  3 45  0.0 9.930692613125D-05 9.094947017729D-13 1.260000000000D+04
   -1.952822265625D+02-1.178329467773D+00-3.725290298462D-09 0.000000000000D+00
    1.692273828125D+04-2.344360351562D+00 4.656612873077D-09-3.000000000000D+00
   -1.908323730469D+04-2.060359001160D+00-0.000000000000D+00 0.000000000000D+00
20 21 12  4  3 45  0.0-6.053503602743D-05-0.000000000000D+00 1.332000000000D+04
    1.511494335938D+04 1.072751045227D+00-1.862645149231D-09 0.000000000000D+00
    1.533198974609D+04 1.556525230408D+00-1.862645149231D-09 2.000000000000D+00
    1.372242968750D+04-2.920163154602D+00-1.862645149231D-09 0.000000000000D+00
 4 21 12  4  3 45  0.0 1.172106713057D-04 1.818989403546D-12 1.434000000000D+04
   -9.716471191406D+03-2.920216560364D+00 0.000000000000D+00 0.000000000000D+00
    1.004107275391D+04 8.031749725342D-02 0.000000000000D+00 6.000000000000D+00
    2.135688281250D+04-1.368878364563D+00-3.725290298462D-09 0.000000000000D+00
19 21 12  4  4 15  0.0-1.693824306130D-04-9.094947017729D-13 1.440000000000D+04
    8.424296875000D+03-7.903585433960D-01-4.656612873077D-09 0.000000000000D+00
    2.083356689453D+04-1.470650672913D+00 4.656612873077D-09 3.000000000000D+00
   -1.205419677734D+04-3.093180656433D+00-9.313225746155D-10 0.000000000000D+00
 4 21 12  4  4 15  0.0 1.172143965960D-04 1.818989403546D-12 1.440000000000D+04
   -1.457749853516D+04-2.437569618225D+00 9.313225746155D-10 0.000000000000D+00
    1.053591992188D+04 4.455080032349D-01 9.313225746155D-10 6.000000000000D+00
    1.810032568359D+04-2.226142883301D+00-3.725290298462D-09 0.000000000000D+00
14 21 12  4  4 15  0.0 7.167458534241D-05 0.000000000000D+00 1.440000000000D+04
   -1.390422900391D+04 1.000661849976D+00 9.313225746155D-10 0.000000000000D+00
    1.111972998047D+04-2.292119026184D+00 0.000000000000D+00-7.000000000000D+00
    1.828368750000D+04 2.155290603638D+00-3.725290298462D-09 0.000000000000D+00
15 21 12  4  4 15  0.0 9.982194751501D-05-0.000000000000D+00 1.440000000000D+04
   -1.088229638672D+04 3.103580474854D-01-9.313225746155D-10 0.000000000000D+00
    2.282945556641D+04-3.640079498291D-01 4.656612873077D-09 0.000000000000D+00
    3.332066894531D+03 3.528737068176D+00-4.656612873077D-09 0.000000000000D+00
16 21 12  4  4 15  0.0-2.613663673401D-05-9.094947017729D-13 1.440000000000D+04
    8.535009765625D+01-6.219501495361D-01-3.725290298462D-09 0.000000000000D+00
    2.065559472656D+04 1.944633483887D+00 5.587935447693D-09-1.000000000000D+00
   -1.489325390625D+04 2.710039138794D+00-1.862645149231D-09 0.000000000000D+00
